{
    "CCSDS_OMM_VERS": "3.0",
    "COMMENT": "GENERATED VIA SPACE-TRACK.ORG API",
    "CREATION_DATE": "2025-11-22T18:56:57",
    "ORIGINATOR": "18 SPCS",
    "OBJECT_NAME": "BEIDOU 3M27",
    "OBJECT_ID": "2024-168C",
    "CENTER_NAME": "EARTH",
    "REF_FRAME": "TEME",
    "TIME_SYSTEM": "UTC",
    "MEAN_ELEMENT_THEORY": "SGP4",
    "EPOCH": "2025-11-22T12:39:20.503296",
    "MEAN_MOTION": "1.86230426",
    "ECCENTRICITY": "0.00022401",
    "INCLINATION": "54.6558",
    "RA_OF_ASC_NODE": "309.4047",
    "ARG_OF_PERICENTER": "324.8124",
    "MEAN_ANOMALY": "33.5984",
    "EPHEMERIS_TYPE": "0",
    "CLASSIFICATION_TYPE": "U",
    "NORAD_CAT_ID": "61187",
    "ELEMENT_SET_NO": "999",
    "REV_AT_EPOCH": "540",
    "BSTAR": "0.00000000000000",
    "MEAN_MOTION_DOT": "-0.00000059",
    "MEAN_MOTION_DDOT": "0.0000000000000",
    "SEMIMAJOR_AXIS": "27906.246",
    "PERIOD": "773.236",
    "APOAPSIS": "21534.362",
    "PERIAPSIS": "21521.860",
    "OBJECT_TYPE": "PAYLOAD",
    "RCS_SIZE": "LARGE",
    "COUNTRY_CODE": "PRC",
    "LAUNCH_DATE": "2024-09-19",
    "SITE": "XSC",
    "DECAY_DATE": null,
    "FILE": "4894246",
    "GP_ID": "303264361",
    "TLE_LINE0": "0 BEIDOU 3M27",
    "TLE_LINE1": "1 61187U 24168C   25326.52732064 -.00000059  00000-0  00000-0 0  9996",
    "TLE_LINE2": "2 61187  54.6558 309.4047 0002240 324.8124  33.5984  1.86230426  5400"
}